QIANFAN-49              
1 62250U 24232P   25315.28872031  .00000234  00000+0  34433-3 0  9993
2 62250  89.0045  44.4025 0012322 285.8516  74.1276 13.50973581 63599
QIANFAN-50              
1 62251U 24232Q   25315.31340618  .00000254  00000+0  37541-3 0  9994
2 62251  89.0050  44.4064 0013978 287.3015  72.6606 13.50974145 63629
QIANFAN-51              
1 62252U 24232R   25315.29693709  .00000105  00000+0  14463-3 0  9997
2 62252  89.0044  44.4039 0011469 291.6538  68.3391 13.50971782 63612
QIANFAN-52              
1 62253U 24232S   25315.25169785  .00000248  00000+0  36536-3 0  9999
2 62253  89.0041  44.2832 0013475 282.9567  77.0080 13.50973066 63690
QIANFAN-53              
1 62254U 24232T   25315.30522954  .00000211  00000+0  30855-3 0  9995
2 62254  89.0048  44.3799 0012358 283.9865  75.9911 13.50984150 63665
QIANFAN-54              
1 62255U 24232U   25315.27227947  .00000247  00000+0  36491-3 0  9997
2 62255  89.0039  44.0646 0001337  28.0055 332.1168 13.50973141 95168
QIANFAN-55              
1 62785U 25016A   25315.22452655  .00000133  00000+0  18717-3 0  9992
2 62785  88.9753 106.4620 0018911  81.1441 279.1850 13.50970594 42931
QIANFAN-56              
1 62786U 25016B   25315.31489027  .00000148  00000+0  21042-3 0  9997
2 62786  88.9726 106.2976 0017585  83.2245 277.0907 13.50979209 42993
